{"type":"FeatureCollection","features":[{"type":"Feature","properties":{"name":"boundary"},"geometry":
{"type":"MultiPolygon","coordinates":[[[[141.33,-9.48],[141.4,-9.36],[141.5,-9.3],[141.59,-9.28],[141.77,-9.37],[141.78,-9.28],[141.84,-9.12],[141.94,-9.02],[142.27,-8.95],[142.49,-9.02],[142.63,-9.1],[142.92,-8.91],[143.22,-8.82],[143.28,-8.74],[143.39,-8.7],[143.56,-8.75],[143.71,-9.02],[143.81,-8.94],[143.95,-8.94],[144.06,-9.02],[144.1,-9.15],[144.27,-9.16],[144.37,-9.22],[144.48,-9.4],[144.47,-9.85],[144.52,-9.85],[144.59,-9.78],[144.52,-9.68],[144.51,-9.58],[144.56,-9.41],[144.62,-9.33],[144.89,-9.23],[144.99,-9.25],[145.08,-9.33],[145.13,-9.47],[145.06,-9.61],[145.07,-9.79],[145.02,-9.87],[144.94,-9.91],[144.89,-10.22],[144.76,-10.38],[144.71,-10.53],[144.56,-10.64],[144.4,-10.67],[144.27,-10.59],[144.17,-10.41],[144.15,-10.53],[144.23,-10.79],[144.29,-11.12],[144.27,-11.36],[144.3,-11.53],[144.28,-11.61],[144.37,-11.76],[144.39,-11.85],[144.34,-11.99],[144.19,-12.07],[144.14,-12.34],[144.05,-12.47],[144.09,-12.59],[144.07,-12.87],[144.17,-13],[144.2,-13.29],[144.34,-13.54],[144.42,-13.6],[144.51,-13.73],[144.61,-13.7],[144.77,-13.75],[144.94,-13.87],[145,-13.99],[145.49,-14.19],[145.68,-14.32],[145.81,-14.47],[145.9,-14.63],[145.94,-14.83],[145.95,-15.1],[146.02,-15.41],[146.02,-15.71],[146.08,-16.07],[146.34,-16.49],[146.48,-16.58],[146.55,-16.72],[146.7,-16.89],[146.82,-17.24],[146.8,-17.39],[146.89,-17.49],[146.93,-17.71],[147,-17.77],[147.05,-17.91],[147.24,-18.1],[147.35,-18.04],[147.49,-18.06],[147.61,-18.21],[147.74,-18.28],[147.79,-18.37],[147.9,-18.37],[147.98,-18.41],[148.08,-18.58],[148.17,-18.58],[148.35,-18.66],[148.56,-18.71],[148.64,-18.76],[148.68,-18.85],[148.83,-18.91],[149.2,-18.94],[149.31,-19.05],[149.43,-19.05],[149.53,-19.13],[149.67,-19.16],[149.85,-19.35],[150.27,-19.6],[150.45,-19.61],[150.52,-19.68],[150.57,-19.81],[150.75,-19.89],[150.95,-20.05],[151.28,-20.43],[151.33,-20.6],[151.46,-20.6],[151.75,-20.73],[151.93,-20.67],[152.3,-20.72],[152.85,-20.88],[152.97,-20.95],[153.01,-21.07],[153,-21.18],[152.95,-21.27],[152.83,-21.34],[152.81,-21.38],[152.86,-21.57],[152.85,-21.73],[152.98,-22.1],[152.98,-22.27],[152.93,-22.44],[152.82,-22.55],[152.61,-22.62],[152.47,-22.58],[152.35,-22.47],[152.21,-22.42],[152.14,-22.28],[151.77,-22.06],[151.7,-21.98],[151.57,-21.99],[151.46,-21.94],[151.36,-22.02],[151.22,-22.03],[151.1,-21.97],[151.03,-21.87],[150.9,-21.87],[150.91,-21.97],[150.87,-22.18],[150.99,-22.44],[151.11,-22.5],[151.2,-22.66],[151.19,-22.82],[151.11,-22.92],[151.25,-23.02],[151.31,-23.24],[151.45,-23.39],[151.48,-23.36],[151.49,-23.21],[151.45,-23.09],[151.47,-22.99],[151.43,-22.84],[151.33,-22.71],[151.32,-22.61],[151.35,-22.53],[151.46,-22.44],[151.6,-22.44],[151.71,-22.51],[151.77,-22.63],[151.93,-22.69],[151.99,-22.79],[151.99,-22.88],[152.16,-23.21],[152.39,-23.56],[152.48,-23.66],[152.62,-23.73],[152.67,-23.9],[152.81,-23.92],[152.9,-23.99],[152.96,-24.23],[152.89,-24.38],[152.74,-24.43],[152.55,-24.42],[152.44,-24.29],[152.44,-24.13],[152.23,-24.09],[152.07,-23.9],[151.85,-23.76],[151.82,-23.8],[152.08,-24.05],[152.16,-24.28],[152.13,-24.38],[152.05,-24.46],[151.96,-24.49],[151.85,-24.46],[151.77,-24.39],[151.68,-24.22],[151.38,-24.16],[151.12,-23.96],[151.06,-23.84],[151.06,-23.67],[150.92,-23.64],[150.85,-23.57],[150.74,-23.56],[150.64,-23.48],[150.58,-23.18],[150.61,-23.06],[150.57,-22.93],[150.62,-22.69],[150.57,-22.59],[150.32,-22.65],[150.23,-22.62],[150.11,-22.53],[150.01,-22.66],[149.85,-22.68],[149.63,-22.52],[149.56,-22.39],[149.42,-22.33],[149.36,-22.22],[149.36,-22.1],[149.26,-21.89],[149.23,-21.64],[149.14,-21.53],[149.02,-21.16],[148.71,-20.99],[148.54,-20.78],[148.5,-20.6],[148.59,-20.45],[148.43,-20.31],[148.31,-20.33],[148.22,-20.31],[148.05,-20.16],[148.02,-20.02],[147.92,-20.07],[147.81,-20.05],[147.56,-19.82],[147.54,-19.72],[147.58,-19.61],[147.65,-19.54],[147.76,-19.51],[147.87,-19.54],[147.95,-19.64],[148.04,-19.69],[148.12,-19.84],[148.16,-19.81],[148.16,-19.65],[148.05,-19.64],[147.93,-19.56],[147.84,-19.43],[147.82,-19.26],[147.71,-19.35],[147.58,-19.36],[147.56,-19.45],[147.5,-19.52],[147.35,-19.56],[147.24,-19.53],[147.18,-19.45],[147.03,-19.49],[146.89,-19.4],[146.7,-19.4],[146.61,-19.31],[146.45,-19.29],[146.35,-19.15],[146.18,-19.08],[146.13,-18.95],[146.17,-18.82],[146.12,-18.67],[146.15,-18.56],[146.08,-18.39],[145.95,-18.27],[145.88,-17.96],[145.91,-17.65],[145.98,-17.5],[146.06,-17.44],[145.85,-17.3],[145.72,-17.12],[145.69,-16.99],[145.6,-16.97],[145.44,-16.84],[145.22,-16.55],[145.2,-16.41],[145.24,-16.09],[145.16,-15.97],[145.15,-15.78],[145.11,-15.68],[145.08,-15.46],[145.12,-15.35],[145.06,-15.28],[145.03,-15.18],[145.07,-15],[144.83,-14.9],[144.74,-14.77],[144.59,-14.73],[144.46,-14.61],[144.41,-14.48],[144.13,-14.43],[144.02,-14.34],[143.99,-14.34],[143.91,-14.47],[143.81,-14.51],[143.69,-14.49],[143.56,-14.4],[143.49,-14.23],[143.48,-14.1],[143.32,-13.78],[143.35,-13.57],[143.38,-13.49],[143.32,-13.36],[143.29,-13],[143.17,-12.89],[143.17,-12.72],[142.9,-12.27],[142.9,-12.11],[142.74,-12.02],[142.65,-11.89],[142.63,-11.37],[142.59,-11.16],[142.46,-11.06],[142.35,-11.11],[142.22,-11.08],[142.15,-11.16],[142.06,-11.2],[141.9,-11.16],[141.8,-11.04],[141.81,-10.8],[141.71,-10.69],[141.7,-10.53],[141.59,-10.58],[141.47,-10.58],[141.38,-10.52],[141.33,-10.43],[141.32,-10.33],[141.35,-10.24],[141.44,-10.16],[141.56,-10.13],[141.72,-10.2],[141.78,-10.3],[141.76,-10.43],[141.8,-10.41],[141.85,-9.91],[141.97,-9.76],[141.93,-9.66],[141.94,-9.54],[141.83,-9.49],[141.78,-9.72],[141.65,-9.82],[141.57,-9.98],[141.44,-10.04],[141.3,-10.01],[141.21,-9.9],[141.21,-9.77],[141.3,-9.65],[141.34,-9.63],[141.33,-9.48]],[[150.08,-21.26],[150.03,-21.29],[150.05,-21.31],[150.14,-21.31],[150.08,-21.26]],[[150.76,-21.74],[150.77,-21.58],[150.59,-21.53],[150.5,-21.37],[150.51,-21.53],[150.56,-21.58],[150.65,-21.73],[150.76,-21.74]],[[149.61,-20.38],[149.77,-20.32],[149.68,-20.27],[149.54,-20.37],[149.38,-20.34],[149.34,-20.4],[149.39,-20.52],[149.53,-20.53],[149.61,-20.38]],[[149.27,-20.04],[149.3,-20.05],[149.31,-20.03],[149.27,-20.04]],[[148.68,-19.74],[148.58,-19.69],[148.57,-19.78],[148.77,-19.86],[148.85,-19.83],[148.85,-19.79],[148.8,-19.74],[148.68,-19.74]],[[147.26,-19.17],[147.38,-19.13],[147.35,-19.05],[147.36,-18.95],[147.2,-18.96],[146.99,-18.88],[146.92,-18.83],[146.89,-18.89],[147.01,-18.94],[147.1,-19.04],[147.2,-19.08],[147.26,-19.17]],[[143.62,-9.29],[143.64,-9.27],[143.67,-9.22],[143.62,-9.29]]],[[[141.57,-12.79],[141.48,-12.77],[141.42,-12.73],[141.36,-12.63],[141.37,-12.46],[141.42,-12.39],[141.51,-12.33],[141.67,-12.33],[141.75,-12.39],[141.8,-12.46],[141.79,-12.63],[141.67,-12.77],[141.57,-12.79]]],[[[145.48,-9.78],[145.6,-9.81],[145.79,-9.8],[145.94,-9.89],[146,-10],[145.98,-10.12],[145.91,-10.3],[145.79,-10.45],[145.7,-10.49],[145.61,-10.49],[145.39,-10.33],[145.24,-10.07],[145.24,-9.98],[145.3,-9.87],[145.37,-9.8],[145.48,-9.78]]],[[[146.14,-8.24],[146.27,-8.2],[146.39,-8.24],[146.54,-8.46],[146.56,-8.55],[146.78,-8.72],[146.81,-8.86],[147.01,-8.99],[147.05,-9.14],[147,-9.26],[146.83,-9.34],[146.54,-9.25],[146.38,-9.07],[146.29,-8.75],[146.18,-8.68],[146.06,-8.47],[146.07,-8.34],[146.14,-8.24]]]]}
}]}
